CCSDS_OMM_VERS,COMMENT,CREATION_DATE,ORIGINATOR,OBJECT_NAME,OBJECT_ID,CENTER_NAME,REF_FRAME,TIME_SYSTEM,MEAN_ELEMENT_THEORY,EPOCH,MEAN_MOTION,ECCENTRICITY,INCLINATION,RA_OF_ASC_NODE,ARG_OF_PERICENTER,MEAN_ANOMALY,EPHEMERIS_TYPE,CLASSIFICATION_TYPE,NORAD_CAT_ID,ELEMENT_SET_NO,REV_AT_EPOCH,BSTAR,MEAN_MOTION_DOT,MEAN_MOTION_DDOT,SEMIMAJOR_AXIS,PERIOD,APOAPSIS,PERIAPSIS,OBJECT_TYPE,RCS_SIZE,COUNTRY_CODE,LAUNCH_DATE,SITE,DECAY_DATE,FILE,GP_ID,TLE_LINE0,TLE_LINE1,TLE_LINE2
2,GENERATED VIA SPACE-TRACK.ORG API,2022-03-09T06:46:13,18 SPCS,SKYNET 4D,1998-002A,EARTH,TEME,UTC,SGP4,2022-03-08T21:55:39.792000,0.99150233,0.0004656,11.7822,19.775,77.0792,112.2874,0,U,25134,999,8795,0.0,4.1e-07,0,42482.104,1452.342,36123.748,36084.189,PAYLOAD,LARGE,UK,1998-01-10,AFETR,,3351547,198281185,0 SKYNET 4D,1 25134U 98002A   22067.91365500  .00000041  00000-0  00000+0 0  9994,2 25134  11.7822  19.7750 0004656  77.0792 112.2874  0.99150233 87956
2,GENERATED VIA SPACE-TRACK.ORG API,2022-03-09T17:28:55,18 SPCS,SKYNET 4D,1998-002A,EARTH,TEME,UTC,SGP4,2022-03-08T21:55:39.792000,0.99150233,0.0004656,11.7822,19.775,77.0792,112.2874,0,U,25134,999,8789,0.0,4.1e-07,0,42482.104,1452.342,36123.748,36084.189,PAYLOAD,LARGE,UK,1998-01-10,AFETR,,3352425,198310239,0 SKYNET 4D,1 25134U 98002A   22067.91365500  .00000041  00000-0  00000-0 0  9995,2 25134  11.7822  19.7750 0004656  77.0792 112.2874  0.99150233 87899
2,GENERATED VIA SPACE-TRACK.ORG API,2022-03-10T18:50:42,18 SPCS,SKYNET 4D,1998-002A,EARTH,TEME,UTC,SGP4,2022-03-10T10:04:05.691648,0.99150409,0.0004662,11.7831,19.7655,75.8916,290.9924,0,U,25134,999,8791,0.0,6.1e-07,0,42482.053,1452.339,36123.724,36084.113,PAYLOAD,LARGE,UK,1998-01-10,AFETR,,3353482,198384503,0 SKYNET 4D,1 25134U 98002A   22069.41951032  .00000061  00000-0  00000-0 0  9995,2 25134  11.7831  19.7655 0004662  75.8916 290.9924  0.99150409 87912
2,GENERATED VIA SPACE-TRACK.ORG API,2022-03-11T06:36:12,18 SPCS,SKYNET 4D,1998-002A,EARTH,TEME,UTC,SGP4,2022-03-10T22:06:59.830848,0.99150502,0.0004671,11.7834,19.7624,75.6337,110.4462,0,U,25134,999,8797,0.0,6.6e-07,0,42482.027,1452.338,36123.735,36084.049,PAYLOAD,LARGE,UK,1998-01-10,AFETR,,3354284,198446005,0 SKYNET 4D,1 25134U 98002A   22069.92152582  .00000066  00000-0  00000+0 0  9998,2 25134  11.7834  19.7624 0004671  75.6337 110.4462  0.99150502 87979
2,GENERATED VIA SPACE-TRACK.ORG API,2022-03-11T20:53:58,18 SPCS,SKYNET 4D,1998-002A,EARTH,TEME,UTC,SGP4,2022-03-10T22:06:59.830848,0.99150502,0.0004671,11.7834,19.7624,75.6337,110.4462,0,U,25134,999,8791,0.0,6.6e-07,0,42482.027,1452.338,36123.735,36084.049,PAYLOAD,LARGE,UK,1998-01-10,AFETR,,3354959,198468733,0 SKYNET 4D,1 25134U 98002A   22069.92152582  .00000066  00000-0  00000-0 0  9999,2 25134  11.7834  19.7624 0004671  75.6337 110.4462  0.99150502 87913
2,GENERATED VIA SPACE-TRACK.ORG API,2022-03-12T20:32:40,18 SPCS,SKYNET 4D,1998-002A,EARTH,TEME,UTC,SGP4,2022-03-11T23:19:42.723264,0.99150716,0.0004703,11.7841,19.7558,74.8227,126.2348,0,U,25134,999,8792,0.0,7.2e-07,0,42481.966,1452.334,36123.81,36083.852,PAYLOAD,LARGE,UK,1998-01-10,AFETR,,3356520,198554934,0 SKYNET 4D,1 25134U 98002A   22070.97202226  .00000072  00000-0  00000-0 0  9994,2 25134  11.7841  19.7558 0004703  74.8227 126.2348  0.99150716 87928
2,GENERATED VIA SPACE-TRACK.ORG API,2022-03-13T06:56:12,18 SPCS,SKYNET 4D,1998-002A,EARTH,TEME,UTC,SGP4,2022-03-12T23:28:42.667104,0.99150953,0.0004754,11.7847,19.7494,74.0719,126.1698,0,U,25134,999,8799,0.0,7.4e-07,0,42481.898,1452.331,36123.959,36083.567,PAYLOAD,LARGE,UK,1998-01-10,AFETR,,3357137,198613508,0 SKYNET 4D,1 25134U 98002A   22071.97827161  .00000074  00000-0  00000+0 0  9997,2 25134  11.7847  19.7494 0004754  74.0719 126.1698  0.99150953 87994
2,GENERATED VIA SPACE-TRACK.ORG API,2022-03-13T17:45:18,18 SPCS,SKYNET 4D,1998-002A,EARTH,TEME,UTC,SGP4,2022-03-13T10:21:08.022240,0.9915107,0.0004792,11.785,19.7466,73.6143,288.3527,0,U,25134,999,8794,0.0,7.4e-07,0,42481.865,1452.329,36124.087,36083.372,PAYLOAD,LARGE,UK,1998-01-10,AFETR,,3357855,198636745,0 SKYNET 4D,1 25134U 98002A   22072.43134285  .00000074  00000-0  00000-0 0  9998,2 25134  11.7850  19.7466 0004792  73.6143 288.3527  0.99151070 87943
2,GENERATED VIA SPACE-TRACK.ORG API,2022-03-14T18:14:10,18 SPCS,SKYNET 4D,1998-002A,EARTH,TEME,UTC,SGP4,2022-03-13T22:23:55.162176,0.991512,0.0004823,11.7853,19.7435,73.3778,107.7573,0,U,25134,999,8794,0.0,7.2e-07,0,42481.828,1452.327,36124.182,36083.204,PAYLOAD,LARGE,UK,1998-01-10,AFETR,,3359259,198718940,0 SKYNET 4D,1 25134U 98002A   22072.93327734  .00000072  00000-0  00000-0 0  9994,2 25134  11.7853  19.7435 0004823  73.3778 107.7573  0.99151200 87948
2,GENERATED VIA SPACE-TRACK.ORG API,2022-03-15T14:26:12,18 SPCS,SKYNET 4D,1998-002A,EARTH,TEME,UTC,SGP4,2022-03-15T00:07:42.769632,0.99151517,0.0004915,11.786,19.7367,72.7826,131.037,0,U,25134,999,8801,0.0,6.6e-07,0,42481.737,1452.323,36124.482,36082.722,PAYLOAD,LARGE,UK,1998-01-10,AFETR,,3359940,198776729,0 SKYNET 4D,1 25134U 98002A   22074.00535613  .00000066  00000-0  00000+0 0  9993,2 25134  11.7860  19.7367 0004915  72.7826 131.0370  0.99151517 88014
2,GENERATED VIA SPACE-TRACK.ORG API,2022-03-15T18:08:11,18 SPCS,SKYNET 4D,1998-002A,EARTH,TEME,UTC,SGP4,2022-03-15T00:07:42.769632,0.99151517,0.0004915,11.786,19.7367,72.7826,131.037,0,U,25134,999,8795,0.0,6.6e-07,0,42481.737,1452.323,36124.482,36082.722,PAYLOAD,LARGE,UK,1998-01-10,AFETR,,3360128,198787159,0 SKYNET 4D,1 25134U 98002A   22074.00535613  .00000066  00000-0  00000-0 0  9994,2 25134  11.7860  19.7367 0004915  72.7826 131.0370  0.99151517 87956
2,GENERATED VIA SPACE-TRACK.ORG API,2022-03-16T18:13:39,18 SPCS,SKYNET 4D,1998-002A,EARTH,TEME,UTC,SGP4,2022-03-16T00:30:54.863712,0.99151831,0.0005021,11.7867,19.7305,72.3056,134.2218,0,U,25134,999,8796,0.0,5.6e-07,0,42481.647,1452.318,36124.842,36082.182,PAYLOAD,LARGE,UK,1998-01-10,AFETR,,3361689,198874300,0 SKYNET 4D,1 25134U 98002A   22075.02146833  .00000056  00000-0  00000-0 0  9998,2 25134  11.7867  19.7305 0005021  72.3056 134.2218  0.99151831 87961
2,GENERATED VIA SPACE-TRACK.ORG API,2022-03-17T06:46:12,18 SPCS,SKYNET 4D,1998-002A,EARTH,TEME,UTC,SGP4,2022-03-17T00:36:42.609888,0.99152153,0.0005133,11.7873,19.7245,72.0324,132.8892,0,U,25134,999,8803,0.0,4.3e-07,0,42481.555,1452.313,36125.226,36081.615,PAYLOAD,LARGE,UK,1998-01-10,AFETR,,3362395,198929927,0 SKYNET 4D,1 25134U 98002A   22076.02549317  .00000043  00000-0  00000+0 0  9998,2 25134  11.7873  19.7245 0005133  72.0324 132.8892  0.99152153 88039
2,GENERATED VIA SPACE-TRACK.ORG API,2022-03-17T18:30:17,18 SPCS,SKYNET 4D,1998-002A,EARTH,TEME,UTC,SGP4,2022-03-17T00:36:42.609888,0.99152153,0.0005133,11.7873,19.7245,72.0324,132.8892,0,U,25134,999,8797,0.0,4.3e-07,0,42481.555,1452.313,36125.226,36081.615,PAYLOAD,LARGE,UK,1998-01-10,AFETR,,3363104,198950945,0 SKYNET 4D,1 25134U 98002A   22076.02549317  .00000043  00000-0  00000-0 0  9999,2 25134  11.7873  19.7245 0005133  72.0324 132.8892  0.99152153 87971
2,GENERATED VIA SPACE-TRACK.ORG API,2022-03-18T18:17:00,18 SPCS,SKYNET 4D,1998-002A,EARTH,TEME,UTC,SGP4,2022-03-18T00:44:42.732096,0.99152483,0.0005254,11.7881,19.7186,71.8822,131.9816,0,U,25134,999,8798,0.0,2.7e-07,0,42481.461,1452.309,36125.646,36081.006,PAYLOAD,LARGE,UK,1998-01-10,AFETR,,3364342,199029085,0 SKYNET 4D,1 25134U 98002A   22077.03105014  .00000027  00000-0  00000-0 0  9995,2 25134  11.7881  19.7186 0005254  71.8822 131.9816  0.99152483 87981
2,GENERATED VIA SPACE-TRACK.ORG API,2022-03-19T17:49:45,18 SPCS,SKYNET 4D,1998-002A,EARTH,TEME,UTC,SGP4,2022-03-19T00:12:42.849792,0.9915281,0.0005372,11.7888,19.7131,71.9395,120.952,0,U,25134,999,8799,0.0,8e-08,0,42481.368,1452.304,36126.054,36080.412,PAYLOAD,LARGE,UK,1998-01-10,AFETR,,3365744,199135886,0 SKYNET 4D,1 25134U 98002A   22078.00882928  .00000008  00000-0  00000-0 0  9998,2 25134  11.7888  19.7131 0005372  71.9395 120.9520  0.99152810 87990
2,GENERATED VIA SPACE-TRACK.ORG API,2022-03-20T06:46:12,18 SPCS,SKYNET 4D,1998-002A,EARTH,TEME,UTC,SGP4,2022-03-20T00:41:00.663360,0.99153154,0.0005494,11.7896,19.7075,72.1774,124.6893,0,U,25134,999,8806,0.0,-1.4e-07,0,42481.269,1452.299,36126.474,36079.795,PAYLOAD,LARGE,UK,1998-01-10,AFETR,,3366283,199192880,0 SKYNET 4D,1 25134U 98002A   22079.02847990 -.00000014  00000-0  00000+0 0  9998,2 25134  11.7896  19.7075 0005494  72.1774 124.6893  0.99153154 88060
2,GENERATED VIA SPACE-TRACK.ORG API,2022-03-20T18:14:43,18 SPCS,SKYNET 4D,1998-002A,EARTH,TEME,UTC,SGP4,2022-03-20T00:41:00.663360,0.99153154,0.0005494,11.7896,19.7075,72.1774,124.6893,0,U,25134,999,8800,0.0,-1.4e-07,0,42481.269,1452.299,36126.474,36079.795,PAYLOAD,LARGE,UK,1998-01-10,AFETR,,3367010,199217047,0 SKYNET 4D,1 25134U 98002A   22079.02847990 -.00000014  00000-0  00000-0 0  9999,2 25134  11.7896  19.7075 0005494  72.1774 124.6893  0.99153154 88004
2,GENERATED VIA SPACE-TRACK.ORG API,2022-03-21T23:25:13,18 SPCS,SKYNET 4D,1998-002A,EARTH,TEME,UTC,SGP4,2022-03-21T00:49:42.591072,0.99153497,0.0005603,11.7903,19.7022,72.5711,123.4138,0,U,25134,999,8801,0.0,-3.7e-07,0,42481.171,1452.294,36126.839,36079.234,PAYLOAD,LARGE,UK,1998-01-10,AFETR,,3368827,199307449,0 SKYNET 4D,1 25134U 98002A   22080.03452073 -.00000037  00000-0  00000-0 0  9991,2 25134  11.7903  19.7022 0005603  72.5711 123.4138  0.99153497 88012
2,GENERATED VIA SPACE-TRACK.ORG API,2022-03-22T06:36:12,18 SPCS,SKYNET 4D,1998-002A,EARTH,TEME,UTC,SGP4,2022-03-22T01:13:42.575808,0.99153842,0.0005702,11.791,19.6969,73.0796,125.8178,0,U,25134,999,8808,0.0,-6.3e-07,0,42481.073,1452.289,36127.161,36078.715,PAYLOAD,LARGE,UK,1998-01-10,AFETR,,3369006,199356012,0 SKYNET 4D,1 25134U 98002A   22081.05118722 -.00000063  00000-0  00000+0 0  9992,2 25134  11.7910  19.6969 0005702  73.0796 125.8178  0.99153842 88089
